IRIDIUM 155             
1 43573U 18061E   26104.41243635  .00000043  00000+0  83962-5 0  9998
2 43573  86.3921  83.3414 0002323  91.5071 268.6391 14.34217667404216
IRIDIUM 154             
1 43574U 18061F   26104.39340943  .00000191  00000+0  61170-4 0  9996
2 43574  86.3924  83.4800 0002318  85.1723 274.9737 14.34217274404260
IRIDIUM 163             
1 43575U 18061G   26104.30460073  .00000079  00000+0  21056-4 0  9999
2 43575  86.3923  83.4342 0002152  90.4769 269.6673 14.34214140404221
IRIDIUM 156             
1 43576U 18061H   26104.41877778  .00000043  00000+0  81171-5 0  9992
2 43576  86.3920  83.3937 0002384  91.0983 269.0486 14.34217637404231
IRIDIUM 164             
1 43577U 18061J   26104.39975097  .00000020  00000+0  10962-6 0  9999
2 43577  86.3923  83.4412 0002247  83.5167 276.6285 14.34217396404279
IRIDIUM 159             
1 43578U 18061K   26104.29826804  .00000103  00000+0  29660-4 0  9995
2 43578  86.3917  83.4214 0002124  86.5566 273.5873 14.34215951404222
IRIDIUM 180             
1 43922U 19002A   26104.50707143  .00000016  00000+0 -11772-5 0  9992
2 43922  86.4019  20.2049 0002103  82.7186 277.4248 14.34217618379869
IRIDIUM 176             
1 43923U 19002B   26104.13341276  .00000533  00000+0  80566-4 0  9992
2 43923  86.6139  20.3133 0002606  84.1332 276.0182 14.72254237389826
IRIDIUM 168             
1 43924U 19002C   26104.50072902  .00000060  00000+0  14330-4 0  9992
2 43924  86.4020  20.2829 0002182  86.4662 273.6783 14.34217479379841
IRIDIUM 173             
1 43925U 19002D   26104.48804312  .00000172  00000+0  54217-4 0  9990
2 43925  86.4017  20.1797 0002145  88.1438 272.0004 14.34218632379829
IRIDIUM 169             
1 43926U 19002E   26104.60871923  .00000192  00000+0  56179-4 0  9998
2 43926  86.4228  51.7610 0002514 100.9401 259.2081 14.38608113381085
IRIDIUM 172             
1 43927U 19002F   26104.48170020  .00000027  00000+0  24295-5 0  9997
2 43927  86.4018  20.1901 0002089  82.5930 277.5504 14.34217902379836
IRIDIUM 175             
1 43928U 19002G   26104.57479897  .00000225  00000+0  60362-4 0  9996
2 43928  86.4502 317.1310 0005357  79.8752 280.3053 14.43588753389804
IRIDIUM 171             
1 43929U 19002H   26104.46267337  .00000150  00000+0  46670-4 0  9992
2 43929  86.4026  20.4971 0002348  85.4241 274.7223 14.34218661379821
IRIDIUM 170             
1 43930U 19002J   26104.47943126  .00000617  00000+0  93878-4 0  9992
2 43930  86.6132  20.1716 0002251  80.2841 279.8630 14.72250740389880
IRIDIUM 167             
1 43931U 19002K   26104.10748868  .00000075  00000+0  19600-4 0  9998
2 43931  86.4017  20.3682 0002541  88.2309 271.9178 14.34217803379772
IRIDIUM 181             
1 56726U 23068S   26104.46207167  .00000155  00000+0  40057-4 0  9991
2 56726  86.4459  83.4286 0002322  79.9133 280.2330 14.43311202153240
IRIDIUM 177             
1 56727U 23068T   26104.43913490  .00000675  00000+0  85416-4 0  9997
2 56727  86.2010 359.0654 0002160  89.1824 270.9645 14.80216841156931
IRIDIUM 174             
1 56728U 23068U   26104.46707699  .00000556  00000+0  84321-4 0  9995
2 56728  86.6147  20.3179 0002143  85.3309 274.8153 14.72260368156643
IRIDIUM 178             
1 56729U 23068V   26104.56338770  .00000702  00000+0  88918-4 0  9996
2 56729  86.6544  51.9364 0002713  82.2241 277.9289 14.80233878156958
IRIDIUM 179             
1 56730U 23068W   26104.28760167  .00000739  00000+0  93748-4 0  9993
2 56730  86.6766  60.8443 0002960  89.1634 270.9927 14.80233336156916
